[{"OBJECT_NAME":"BEIDOU-3 G4","OBJECT_ID":"2023-066A","EPOCH":"2026-03-09T21:26:53.560608","MEAN_MOTION":1.00272496,"ECCENTRICITY":0.00025024,"INCLINATION":0.6392,"RA_OF_ASC_NODE":311.6488,"ARG_OF_PERICENTER":154.1335,"MEAN_ANOMALY":183.5538,"EPHEMERIS_TYPE":0,"CLASSIFICATION_TYPE":"U","NORAD_CAT_ID":56564,"ELEMENT_SET_NO":999,"REV_AT_EPOCH":1039,"BSTAR":0,"MEAN_MOTION_DOT":-1.09e-6,"MEAN_MOTION_DDOT":0},{"OBJECT_NAME":"SL-12 R\/B(2)","OBJECT_ID":"2004-043D","EPOCH":"2026-03-09T14:36:32.906880","MEAN_MOTION":1.00162981,"ECCENTRICITY":0.00069583,"INCLINATION":13.1205,"RA_OF_ASC_NODE":17.1932,"ARG_OF_PERICENTER":167.8077,"MEAN_ANOMALY":2.7519,"EPHEMERIS_TYPE":0,"CLASSIFICATION_TYPE":"U","NORAD_CAT_ID":28466,"ELEMENT_SET_NO":999,"REV_AT_EPOCH":7811,"BSTAR":0,"MEAN_MOTION_DOT":-1.39e-6,"MEAN_MOTION_DDOT":0}]
